[{"OBJECT_NAME":"STARLINK-4072","OBJECT_ID":"2022-053AQ","EPOCH":"2026-03-09T12:27:38.093760","MEAN_MOTION":15.08834339,"ECCENTRICITY":0.00015012,"INCLINATION":53.2173,"RA_OF_ASC_NODE":144.8893,"ARG_OF_PERICENTER":90.8166,"MEAN_ANOMALY":269.2998,"EPHEMERIS_TYPE":0,"CLASSIFICATION_TYPE":"U","NORAD_CAT_ID":52694,"ELEMENT_SET_NO":999,"REV_AT_EPOCH":21112,"BSTAR":-2.8820835e-5,"MEAN_MOTION_DOT":-7.47e-6,"MEAN_MOTION_DDOT":0},{"OBJECT_NAME":"YUNYAO-1 43","OBJECT_ID":"2025-059A","EPOCH":"2026-03-09T23:54:24.516576","MEAN_MOTION":15.10329109,"ECCENTRICITY":0.00157026,"INCLINATION":97.608,"RA_OF_ASC_NODE":250.9377,"ARG_OF_PERICENTER":132.1084,"MEAN_ANOMALY":228.1483,"EPHEMERIS_TYPE":0,"CLASSIFICATION_TYPE":"U","NORAD_CAT_ID":63344,"ELEMENT_SET_NO":999,"REV_AT_EPOCH":5332,"BSTAR":0.00032498885,"MEAN_MOTION_DOT":5.279e-5,"MEAN_MOTION_DDOT":0}]
